[{"OBJECT_NAME":"STARLINK-2322","OBJECT_ID":"2021-018E","EPOCH":"2026-03-09T17:41:23.377632","MEAN_MOTION":15.30189436,"ECCENTRICITY":0.00010126,"INCLINATION":53.1594,"RA_OF_ASC_NODE":242.7255,"ARG_OF_PERICENTER":92.6426,"MEAN_ANOMALY":267.4691,"EPHEMERIS_TYPE":0,"CLASSIFICATION_TYPE":"U","NORAD_CAT_ID":47791,"ELEMENT_SET_NO":999,"REV_AT_EPOCH":27674,"BSTAR":-8.5114396e-5,"MEAN_MOTION_DOT":-2.878e-5,"MEAN_MOTION_DDOT":0},{"OBJECT_NAME":"KUIPER-00213","OBJECT_ID":"2026-030P","EPOCH":"2026-03-09T22:00:01.999584","MEAN_MOTION":15.32626943,"ECCENTRICITY":0.00152813,"INCLINATION":51.8816,"RA_OF_ASC_NODE":218.5142,"ARG_OF_PERICENTER":64.2462,"MEAN_ANOMALY":206.8369,"EPHEMERIS_TYPE":0,"CLASSIFICATION_TYPE":"U","NORAD_CAT_ID":67777,"ELEMENT_SET_NO":999,"REV_AT_EPOCH":502,"BSTAR":0.0016072376,"MEAN_MOTION_DOT":0.00051551,"MEAN_MOTION_DDOT":0}]
